{"type":"FeatureCollection", "features": [
{"type":"Feature","geometry":{"type":"Polygon","coordinates":[[[146.817667552074,-36.06739287999978],[146.82442732855614,-36.08850933065078],[146.87295795246413,-36.0736684142407],[146.88056201964332,-36.087511064909876],[146.90691554570424,-36.08493397690001],[146.90776845251946,-36.11127141713737],[146.92680950108988,-36.097165508497014],[146.9437106061908,-36.115976989910095],[146.95630056855018,-36.078177610624365],[146.98130432259563,-36.094863312645444],[147.0068724297987,-36.083577584529145],[147.01347857627889,-36.104708345173734],[147.0227821853451,-36.09988217585537],[147.035069101613,-36.11496329689659],[147.05308604956568,-36.10767842823201],[147.06181765300659,-36.06614200863068],[147.09545002917955,-36.052697471129065],[147.0966927903921,-36.04060176114539],[147.08010496776802,-36.00012628960343],[147.05703182331126,-35.98422097772553],[147.04804180928693,-35.945163976778524],[147.02388279547543,-35.92507696479279],[146.96876181557084,-35.91388097049874],[146.9623998234991,-35.94060298018803],[146.93493482709226,-35.94750297813574],[146.952006379569,-35.98897549971151],[146.8489513020326,-36.02410522209104],[146.83475422528653,-36.015619540957246],[146.817667552074,-36.06739287999978]]]},"properties":{"lga_code":"10050","lga_name":"Albury","state":"New South Wales","area_sqkm":305.6386}},
{"type":"Feature","geometry":{"type":"Polygon","coordinates":[[[152.2957231138374,-30.931019429351853],[152.28724876897977,-30.899957358293335],[152.2994902518703,-30.866219299236374],[152.2867870882287,-30.82985632772527],[152.31703631932442,-30.792624130400267],[152.34386293606929,-30.79188802301668],[152.37583803890652,-30.739863005756533],[152.3584104983737,-30.684200203634223],[152.36929703033564,-30.658892334510103],[152.33688127677274,-30.64045873120107],[152.31172818515446,-30.600178288441548],[152.3863128651311,-30.529703985207455],[152.38503661829978,-30.506660114909412],[152.40025835717094,-30.500929056357688],[152.408310067774,-30.488720057055183],[152.3932422212402,-30.476402235485907],[152.39205579575932,-30.442904355117857],[152.41721129346047,-30.43681121753774],[152.4280839144655,-30.418884198469392],[152.3875370641072,-30.383146464225636],[152.3819253374702,-30.36261522352146],[152.35178543211197,-30.355346720516994],[152.3373297665051,-30.258146408371026],[152.35039574789116,-30.235165409475194],[152.3104797572105,-30.200799395315183],[152.3170787788257,-30.182106385818457],[152.30319677089534,-30.179172394440865],[152.31655978153972,-30.16161539561302],[152.3049307729831,-30.161393394475844],[152.2982697895204,-30.117062403490703],[152.27941779411364,-30.099203391516568],[152.29985878525767,-30.071117393298316],[152.29464680980098,-30.040781392560138],[152.31517779816562,-30.03419638451445],[152.31688480218233,-30.00144739443315],[152.30065478621654,-29.98535139272666],[152.3080107759968,-29.980162403405377],[152.27504782251756,-29.960403400039706],[152.27216581527105,-29.941688389616875],[152.2669897827174,-29.96641138929973],[152.24520479534252,-29.966443387177637],[152.24730081322193,-29.98097939749189],[152.22322679520042,-29.98821838520334],[152.21286481809847,-29.975392394098247],[152.19805581956334,-29.977918382677608],[152.18749181508832,-29.944760381399835],[152.13722384040994,-29.950583386565324],[152.12927881040673,-29.958113385852197],[152.14736082070877,-30.016820378049946],[152.13623683148583,-30.021270387004893],[152.11027182787885,-29.995864364296583],[152.08070379914113,-30.013998381571927],[152.05711082342617,-30.002811369206167],[152.04771182319212,-30.013570358379447],[151.98437582198426,-30.00478837220251],[151.94434084541732,-30.015958348432704],[151.9264558492614,-30.002758356613054],[151.9048028394411,-30.022042344678457],[151.85138984790896,-30.00634934943572],[151.68358775815426,-30.0073391234188],[151.67321865802754,-30.01837827251567],[151.65752618189478,-30.002763310905443],[151.66428291383312,-29.980776281381637],[151.64555023586763,-29.982683369615508],[151.60342578598556,-29.942685755314216],[151.4498537578516,-29.997079751206318],[151.37225087434433,-29.94019132347533],[151.3683319314723,-29.967224303311507],[151.32968442673757,-29.96265049965034],[151.32465490383612,-29.991055289393305],[151.30819194609072,-29.989032297835294],[151.30475390416433,-30.008000287656422],[151.2769339380126,-30.00429329502425],[151.2545499052726,-30.04859228326529],[151.26429693155558,-30.069040294330637],[151.25706894787933,-30.105928793932854],[151.272240606862,-30.09914079530039],[151.29024028294285,-30.11300467708912],[151.2908119090443,-30.143908307375366],[151.30515790703393,-30.145939288734017],[151.29221376545738,-30.171455417713947],[151.31679026316365,-30.165637279972188],[151.3105547867156,-30.22373019982492],[151.32683951441962,-30.22609006136895],[151.30403788236964,-30.265156309525782],[151.32304488975655,-30.26733831132324],[151.3467578021426,-30.305003643830247],[151.324177440976,-30.33673667195055],[151.34675509780817,-30.339769514090996],[151.36060104312767,-30.363559325569195],[151.3977424478415,-30.36910503910094],[151.40299545500937,-30.386547919725853],[151.451543838038,-30.39424031435488],[151.46112786381218,-30.418461305440072],[151.4478478442309,-30.428233324261438],[151.4656128291255,-30.451351316109566],[151.47264784003897,-30.43713931666664],[151.52865482258116,-30.441248321987437],[151.5357008190739,-30.462151322810506],[151.58335782874053,-30.497169327585365],[151.58278481194986,-30.551429327937328],[151.63972888949405,-30.593760503657666],[151.64231023378392,-30.636183484220144],[151.67116004631276,-30.666594407190317],[151.71090752052046,-30.673074321023154],[151.71398851891942,-30.682607391387982],[151.71568442000768,-30.67241529147347],[151.75023589570645,-30.672297194768007],[151.77474367087567,-30.68613615721176],[151.73804624472567,-30.691900343751303],[151.7344915119355,-30.7172204036013],[151.7199387040132,-30.715214492198626],[151.7306057893324,-30.741395463411152],[151.71990044371557,-30.795822652796392],[151.77549446914074,-30.777055297962253],[151.83600496040515,-30.785984803817758],[151.90281356479232,-30.764530350065883],[151.9316711906668,-30.768500112868935],[151.93683795150199,-30.757008123280063],[151.9595967126346,-30.803615375817998],[151.9888247381705,-30.809797378679743],[151.99270173873236,-30.80169836899305],[152.00442871593978,-30.811916370200112],[152.0158307259292,-30.800960371218366],[152.01584671281864,-30.824958371398964],[152.03345572817912,-30.84370236323861],[152.04895771678594,-30.83944536470433],[152.03902569522754,-30.861060383905972],[152.08401570188263,-30.843329378123325],[152.11758471426407,-30.869501381569098],[152.12592872454107,-30.859331382301924],[152.1501807004621,-30.867273394713116],[152.17752062077804,-30.91514797772422],[152.2957231138374,-30.931019429351853]]]},"properties":{"lga_code":"10180","lga_name":"Armidale","state":"New South Wales","area_sqkm":7809.4406}},
{"type":"Feature","geometry":{"type":"Polygon","coordinates":[[[153.44964182187866,-28.75503448800466],[153.42679653928224,-28.794499035979918],[153.40224927330289,-28.78510022340474],[153.38191603364723,-28.800065871449846],[153.39629979637397,-28.84300248324745],[153.37966079720127,-28.85112049161591],[153.3625268238242,-28.891696500186406],[153.38864679755653,-28.91670049303864],[153.37554446416178,-28.953881901992283],[153.43585566103704,-29.001088538503428],[153.48354549694625,-28.99072373329332],[153.59009180976062,-28.877599523330073],[153.5707519609737,-28.88505750140382],[153.52695076756967,-28.872878496821418],[153.57679490230262,-28.869825521905575],[153.5634486468308,-28.847070470360606],[153.57487522644772,-28.840152301478682],[153.57704869245765,-28.86843647192084],[153.592044859806,-28.875579473514854],[153.6088288021795,-28.843262524987495],[153.59447380044696,-28.79310952312471],[153.6051173455157,-28.745665953849127],[153.58129255985315,-28.733225981307285],[153.57498766336715,-28.712002890495718],[153.54253482805035,-28.70428450710938],[153.51685747813235,-28.725687554646626],[153.4851850015291,-28.727094771418283],[153.48845882761452,-28.75402650196199],[153.47809480932787,-28.74992550087091],[153.46290383898636,-28.76560250944073],[153.44964182187866,-28.75503448800466]]]},"properties":{"lga_code":"10250","lga_name":"Ballina","state":"New South Wales","area_sqkm":484.9692}},
{"type":"Feature","geometry":{"type":"Polygon","coordinates":[[[143.55246613927554,-33.140467794755416],[143.54940545802867,-33.15970386469591],[143.37830772465568,-33.14125647396942],[143.35567993624127,-33.27592816349289],[143.30818961367066,-33.27078063054121],[143.29490977819034,-33.35630311030771],[143.24327137629507,-33.350697627111465],[143.21082757218596,-33.56859610660637],[143.03952440927006,-33.55024588610599],[142.9924204502185,-33.85355508531162],[142.94476298784508,-33.84839050242043],[142.9309873724963,-33.934760722174154],[142.80587660251857,-33.921909214640614],[142.7965615387241,-33.982916584495804],[142.7601166945672,-33.97919366231499],[142.74440737821203,-34.08181159207073],[142.83267750396047,-34.09131770736005],[142.78882160505344,-34.389315676735876],[142.61248995376593,-34.37128654623859],[142.58338119236225,-34.558017865768335],[142.47043543708114,-34.59133455942009],[142.45233359633025,-34.63348498864909],[142.48365113120215,-34.636421710481734],[142.47559243938775,-34.672604940251986],[142.50567877602663,-34.6569351418942],[142.5158622238659,-34.663670132529845],[142.4972733756705,-34.676542361534885],[142.51367532177795,-34.69220377258986],[142.49975074302262,-34.703124801852866],[142.5189562300395,-34.70293266296703],[142.4995781100296,-34.73859889207516],[142.5170509459142,-34.754809393196034],[142.53356609347978,-34.75305398414486],[142.55675107794346,-34.77536034564093],[142.5671826870334,-34.76691516619382],[142.61682757766715,-34.785485899215914],[142.63869596465145,-34.78073931046577],[142.64637067495192,-34.76330243080156],[142.62050418953075,-34.757114289245344],[142.6183225823096,-34.728738538931715],[142.63734040879706,-34.73503040008686],[142.6614187461831,-34.72169340141189],[142.67896093193465,-34.73918837255717],[142.6786528434366,-34.72233170242851],[142.699412160011,-34.724460263663666],[142.68447987324203,-34.71403720271672],[142.6789060769734,-34.68083419217113],[142.68415064701418,-34.67087071241406],[142.7107600724456,-34.67575673401232],[142.68921303780513,-34.65253315259137],[142.70879573733222,-34.622650133547666],[142.68951038070773,-34.61828445238379],[142.70397271887126,-34.61349378320343],[142.69998735070735,-34.5993662928759],[142.75917981144448,-34.60012279637248],[142.748297515154,-34.576746525575636],[142.78376422944842,-34.579063477688315],[142.77020711251396,-34.56794613681275],[142.7914349010874,-34.54637560792732],[142.810110186939,-34.5608417991297],[142.78690269807115,-34.589343817941845],[142.7979256656427,-34.59761544864938],[142.81064472438925,-34.58929240934878],[142.8033501439795,-34.60707846903323],[142.81826504119766,-34.61242901995327],[142.8237836313779,-34.60048104020225],[142.84068594655608,-34.625738431372724],[142.8683482121076,-34.62744167303003],[142.8551856930806,-34.63976129232745],[142.87135998974173,-34.649201223352634],[142.86055760003188,-34.66514871281418],[142.87513331694694,-34.67449342374383],[142.89287030374794,-34.67949194483438],[142.90153364454565,-34.65494474519002],[142.92385032169548,-34.647843276476706],[142.9488736958898,-34.66966157811789],[142.95926991468386,-34.66496879870997],[142.97271488993442,-34.69519370971515],[142.98942041020425,-34.662564640503355],[142.9945797184075,-34.673858540887665],[143.0172870148924,-34.67364706225183],[143.01096050407602,-34.69407364200559],[143.0327729016546,-34.6830277832461],[143.03904663895636,-34.702514583752404],[143.03922425033338,-34.68661634365849],[143.05482884682303,-34.69884140468004],[143.069926926292,-34.678282075456195],[143.0903800510672,-34.701319926844185],[143.1129866693438,-34.68108625807947],[143.12109494751502,-34.687472788612865],[143.10654314856552,-34.701149707821294],[143.12761473603297,-34.69273249904279],[143.1180302966144,-34.70297907852923],[143.1334700344252,-34.700563929449515],[143.14654248113015,-34.714714300336105],[143.16241036014065,-34.69808828119068],[143.1653669678943,-34.71812258150235],[143.18099335623288,-34.70946826239598],[143.17928877579794,-34.717315302343884],[143.20009222258182,-34.71704945360909],[143.200919750988,-34.73343373376741],[143.22209290784033,-34.73174193504767],[143.22439531506515,-34.75871199536576],[143.24066711371745,-34.74544759627233],[143.2489326913165,-34.75784280685921],[143.2740223878693,-34.752671848360656],[143.25213609947457,-34.77278976715349],[143.27301165589287,-34.776399348454945],[143.27674199388443,-34.79224754878773],[143.3088508999833,-34.77992571067594],[143.3498735724072,-34.792929003283724],[143.35956504872524,-34.816886444038275],[143.34119713893287,-34.846296083100746],[143.35496364680426,-34.84602642394647],[143.35256945607352,-34.8582219238792],[143.3547094840979,-34.87631872412992],[143.37347548273257,-34.85899371517262],[143.3710084818574,-34.872888715111834],[143.39518549847836,-34.86842971657447],[143.41751349258658,-34.8947547181275],[143.4470174877277,-34.897359719971334],[143.44918745627083,-34.90958972018619],[143.4734324627299,-34.906769731671695],[143.47411245702673,-34.96789572211538],[143.49100574396056,-34.972402693194475],[143.5086794550059,-34.82164372330246],[143.54021147553289,-34.762168714874576],[143.54164647809628,-34.73172073476314],[143.57479340258905,-34.735557486857736],[143.59326948239018,-34.70641473782065],[143.58388978504183,-34.693385057147836],[143.62772102860535,-34.689373739866106],[143.6358838923373,-34.634980480018335],[143.6154594759226,-34.63038172870726],[143.65756646184175,-34.603844721173544],[143.63240646744313,-34.58520772947055],[143.65313346545864,-34.57192673068355],[143.63476546931528,-34.56081271945684],[143.6591154891219,-34.52194373072782],[143.67622248618278,-34.52522873182514],[143.68951947522277,-34.513366742583194],[143.67594946795063,-34.506431731683186],[143.68324647871395,-34.485871722005754],[143.7025754851843,-34.49190172326298],[143.71658046389135,-34.48251773408352],[143.73198448705278,-34.42238873465568],[143.7550954859061,-34.396300735942106],[143.78475447175296,-34.3920207277906],[143.78590546309607,-34.37553373775366],[143.83976645550018,-34.368458741124606],[143.84184447651054,-34.3540887411609],[143.88194045070557,-34.3505287536898],[143.89971047982536,-34.330713754690976],[143.91359744749556,-34.33294873559254],[143.9304434721339,-34.362932746869305],[143.9456964503697,-34.35681473780433],[144.03713843420869,-34.27317375311567],[144.06380343015238,-34.273103744833435],[144.0741454534872,-34.22063175514931],[144.1038334195077,-34.214935757028826],[144.118417439702,-34.18922075779979],[144.21199340955002,-34.25228776429648],[144.24858341603863,-34.23058176653585],[144.27421141098299,-34.24284277829174],[144.29202041924015,-34.23268075938823],[144.29597540754526,-34.244210779724376],[144.31730440409487,-34.246407761136005],[144.32725740343764,-34.23741077172815],[144.37398038618838,-34.23900377480732],[144.39142140552383,-34.21820977581547],[144.42545337939475,-34.22830178812633],[144.43411537906346,-34.21802277862898],[144.46999439315118,-34.22291779103315],[144.5505843757362,-34.17298479604296],[144.56225638820516,-34.12898979652318],[144.57494838568388,-34.13525977741027],[144.6289783822035,-34.08677178068744],[144.67591135530486,-34.08494679381541],[144.68813637495745,-34.06950878453069],[144.68752035708948,-34.04844180434715],[144.55825037847694,-34.02837578557825],[144.56257822047806,-34.00073254567955],[144.5523654121167,-33.99965407499296],[144.57845831904237,-33.886512935964255],[144.5422888348583,-33.8822892635296],[144.5564397469652,-33.73323847345968],[144.51319736387046,-33.7282628405542],[144.5313516023602,-33.61043009095776],[144.44764276559488,-33.601525795354256],[144.4605454517214,-33.5162972556263],[144.43158781629978,-33.51304651369196],[144.4414308805392,-33.45250413392863],[144.38244865036012,-33.44033961995932],[144.39548240565009,-33.36329814029073],[144.36492384045644,-33.3598343882577],[144.36870283709504,-33.28267499797826],[144.26264725351476,-33.27289287096638],[144.27778449303065,-33.25420277182689],[144.23626129950495,-33.24981600908785],[144.25143289603145,-33.15505645942775],[143.90591342993196,-33.115694386872434],[143.89819857694067,-33.16137873669301],[143.83902908618617,-33.15457711288141],[143.8166691609855,-33.13743225134517],[143.78988275387064,-33.148852499726004],[143.72095744467953,-33.14043925531495],[143.66648878919926,-33.17907990215222],[143.63729460605285,-33.14990272012153],[143.55246613927554,-33.140467794755416]]]},"properties":{"lga_code":"10300","lga_name":"Balranald","state":"New South Wales","area_sqkm":21690.7493}},
{"type":"Feature","geometry":{"type":"Polygon","coordinates":[[[149.3946917251534,-33.99754611482621],[149.41350168980344,-33.857426145473404],[149.44415869487602,-33.86134115814649],[149.42585171923778,-33.84755415647005],[149.4371576992701,-33.83408815735209],[149.4835816810303,-33.84633416144983],[149.4837206785944,-33.78526217103603],[149.49961570092316,-33.74801116215179],[149.57064370120844,-33.743807168282395],[149.57615466398394,-33.71512717856076],[149.61175766973392,-33.70812217160783],[149.61147209302135,-33.68205926140071],[149.63080136210274,-33.667144912979296],[149.68157267270666,-33.68402117752506],[149.69199367537632,-33.6506741882017],[149.7190146645182,-33.62654118039439],[149.70743869814677,-33.61076416927169],[149.65877069655895,-33.59918017494113],[149.66803567637606,-33.59000217568501],[149.6448036841943,-33.55387616340571],[149.6134086878895,-33.56025617071609],[149.62389171474123,-33.492984171156536],[149.66413070001906,-33.484818164606146],[149.70572270038093,-33.51463017844725],[149.7094386878168,-33.53095417888667],[149.72251166666658,-33.52521717998953],[149.75300767030714,-33.54130418277177],[149.7738196797449,-33.5220401744603],[149.7926526838718,-33.54751819629109],[149.869605666362,-33.51988020286134],[149.87167667741875,-33.50910918296801],[149.9071435722152,-33.51032628610244],[149.92217905416376,-33.4778029872004],[149.9129011556521,-33.47645701637218],[149.91943181923344,-33.440553956695815],[149.9019210220329,-33.438058045133474],[149.91371829800158,-33.37711880574479],[149.88541868282087,-33.370640203203905],[149.87848868705547,-33.34463219241002],[149.83228670620727,-33.32367818819674],[149.82138270083283,-33.29893519706393],[149.8363703338947,-33.2573718380877],[149.80810867836604,-33.2534709755771],[149.82846169921245,-33.22360618715397],[149.79950326554888,-33.20543382448225],[149.78063265781762,-33.208559872848845],[149.77418234225405,-33.180110682082145],[149.7519256757289,-33.17733282011238],[149.7719767305257,-33.115837191433954],[149.76391374372605,-33.099111170608865],[149.7376017366258,-33.10550417835005],[149.68645575758558,-33.07479417366171],[149.6508367632881,-33.06902217051345],[149.66218775355588,-33.053911171396074],[149.64001874858405,-33.03825616935269],[149.6542007473627,-33.0320391705446],[149.63857777100662,-33.02016716909892],[149.64810777298854,-32.993163159737776],[149.58646070153284,-32.993749384376734],[149.53910379081802,-32.97193116011079],[149.49655180574717,-32.98028215648365],[149.4846837998685,-32.96005915531335],[149.45657478518834,-32.94860315280228],[149.427477784768,-32.98554516055237],[149.4030369593386,-32.976059478377806],[149.4017467867561,-32.99883414842806],[149.38362180015275,-32.99175114681673],[149.34347979719186,-33.06261213386567],[149.32296081049358,-33.059144142078644],[149.3171528507124,-33.1466009121983],[149.35045146547657,-33.151073675090245],[149.3494577815836,-33.18425794523914],[149.3442280956871,-33.23880513517442],[149.31341878002462,-33.238973152529596],[149.32152476592842,-33.263226133396344],[149.31084329588862,-33.27599154256944],[149.33720975582497,-33.32792914519913],[149.31272676654,-33.350591143256175],[149.29895022910276,-33.42767507261595],[149.34153273245724,-33.43238786630496],[149.34129986075905,-33.44654886638439],[149.36345060681987,-33.45292275833375],[149.3535903792088,-33.52654586800215],[149.4220634573265,-33.54352739401873],[149.4003847032368,-33.683174143126884],[149.35603655621517,-33.71083245950192],[149.33482023507813,-33.74491768791599],[149.31737856788794,-33.74254182640137],[149.3163823703171,-33.72395873618615],[149.28995404218625,-33.7397779940291],[149.2577487367295,-33.740643141275825],[149.21942173592893,-33.79235113835787],[149.1851667402332,-33.79769314546993],[149.18335973545365,-33.838857145602354],[149.1702897470667,-33.841165124503625],[149.18189674329645,-33.858192135612065],[149.14562972951163,-33.85042313246658],[149.13472070884285,-33.868837131665785],[149.1181715810357,-33.8705635802696],[149.11984181868354,-33.887815520531596],[149.15497881875632,-33.927139303796274],[149.14450970650657,-33.95791912311815],[149.17935069814206,-33.984664136273516],[149.1981426854008,-33.984665137877336],[149.21790170511377,-33.96359113941893],[149.2355144105699,-33.97964083103618],[149.23387925228647,-33.96764388081306],[149.29923468541796,-33.94617065626205],[149.31415358194076,-33.95673750761576],[149.34778398747298,-33.95328630048113],[149.35207116462738,-33.9712231609744],[149.383576748999,-33.97961385374415],[149.3946917251534,-33.99754611482621]]]},"properties":{"lga_code":"10470","lga_name":"Bathurst","state":"New South Wales","area_sqkm":3817.8645}},
{"type":"Feature","geometry":{"type":"Polygon","coordinates":[[[151.15498124988866,-33.926180552193834],[151.10078835591284,-33.93924678724155],[151.1188674192843,-33.96935682913362],[151.1379612578208,-33.95981527084398],[151.12824368302432,-34.00598358026232],[151.1494774115537,-33.994187312157024],[151.16608345507126,-33.95021731339685],[151.1817254104529,-33.96788531497919],[151.18584743197667,-33.952140315253544],[151.1927274280628,-33.97391231604794],[151.1923543907648,-33.9542103158752],[151.21246640662918,-33.96349931781802],[151.19910342903717,-33.95985649654468],[151.2020792470696,-33.971310866902684],[151.22066086479063,-33.96842066861801],[151.2303897680456,-33.93386127928526],[151.21427294163885,-33.92431947771239],[151.17935437720004,-33.92017532442396],[151.16207440785965,-33.93372430290768],[151.15498124988866,-33.926180552193834]]]},"properties":{"lga_code":"10500","lga_name":"Bayside (NSW)","state":"New South Wales","area_sqkm":50.6204}},
{"type":"Feature","geometry":{"type":"Polygon","coordinates":[[[149.97619755281158,-37.505146559097],[149.97541516126938,-37.44543722864403],[149.95655912744962,-37.42349622683317],[149.94983615535327,-37.374656225923786],[149.96973115109031,-37.30968422726613],[149.94401313976292,-37.27771622478347],[149.98687516794266,-37.23993722833461],[150.05193713413874,-37.26226022425375],[150.01086113789933,-37.211818230279796],[150.0234711557251,-37.21255923140372],[150.00487416865775,-37.14125623929181],[149.98762117150477,-37.14111122776115],[149.95379418260123,-37.100875224504534],[149.92666318718355,-37.09984621209839],[149.9297311952684,-37.11010023243606],[149.91139016803953,-37.111787220826336],[149.89349221299497,-37.09707422915074],[149.8783101849366,-37.101031207836975],[149.8725192083354,-37.08319520721066],[149.9018811954631,-37.06914521971007],[149.9148521923845,-37.07610622090075],[149.9234192250855,-37.04629323146419],[149.94465718055764,-37.05398322339185],[149.94773720507047,-37.017543233427624],[149.926670172011,-36.99204721139903],[149.94592323477127,-36.94911722282212],[149.91344120067976,-36.94457922992136],[149.90479322618927,-36.91463521896266],[149.91970219639705,-36.89542823015433],[149.9381072424466,-36.90244023182685],[149.93017721763448,-36.87397522094019],[149.95001620696382,-36.85537722257331],[149.9343572010448,-36.84411322111491],[149.94062623446828,-36.81167022145743],[149.97720324430617,-36.76961822441992],[149.99187420796588,-36.72555923543162],[149.9793112304494,-36.722215224296534],[149.98276205261922,-36.70226821447162],[150.06828221911732,-36.55415924109104],[150.05554222306452,-36.54019322986649],[150.05481724027686,-36.48817022945967],[150.08476527353824,-36.42918123173445],[150.06528726924878,-36.41003721987543],[150.08327016269232,-36.36369974116918],[150.0527803003232,-36.343206918322366],[150.05739586687585,-36.363185918864566],[150.03253678319797,-36.34572716654085],[150.01902240282232,-36.36433441546421],[149.98742990865392,-36.35838270262356],[149.96776130714522,-36.318731940619585],[149.95050684922512,-36.32362406912499],[149.9530506062264,-36.26877292898732],[149.75131602303478,-36.23285204098363],[149.73983921393375,-36.239750260023435],[149.64046627557673,-36.195524801043675],[149.6510305124363,-36.13122241153932],[149.58340989161297,-36.14267660572376],[149.56983071590534,-36.20208091493617],[149.5479392288663,-36.205946083059494],[149.55215442658843,-36.218111163506094],[149.53657585821344,-36.224521412195685],[149.60230898272997,-36.33783021865877],[149.53919566910744,-36.36559287335434],[149.54205722419167,-36.399168053823985],[149.48448114933493,-36.429797839032645],[149.45718666635833,-36.48521933703462],[149.4714916615521,-36.50413321839659],[149.4554303807567,-36.529550497173766],[149.43250809234985,-36.54531183529565],[149.39633583781236,-36.54800128219061],[149.38401237760112,-36.56456748123656],[149.37865318447672,-36.594661610971784],[149.41498235115426,-36.65085625447335],[149.45374450556,-36.64586077779012],[149.464646402528,-36.655405648795686],[149.45799809939467,-36.68696374842688],[149.4388147606203,-36.70104200686014],[149.4596946151608,-36.716639778767586],[149.43804311072088,-36.77617322728395],[149.48555390123477,-36.7894576314814],[149.4845797173965,-36.819293731591536],[149.51025242167896,-36.83082245389165],[149.5026988909201,-36.84562665333317],[149.37703729746687,-36.874817862661196],[149.38790414046673,-36.913941273852416],[149.37498528657235,-36.95882316303025],[149.3992377495322,-36.98177730527055],[149.39476152758772,-37.00174351501389],[149.41813598314727,-37.006319287061004],[149.39791198453827,-37.02063061540814],[149.4018179511684,-37.11536237635857],[149.35646813878583,-37.26282719340107],[149.97619755281158,-37.505146559097]]]},"properties":{"lga_code":"10550","lga_name":"Bega Valley","state":"New South Wales","area_sqkm":6278.5013}},
{"type":"Feature","geometry":{"type":"Polygon","coordinates":[[[152.80345891874785,-30.18955424384345],[152.75518971575934,-30.18077651897506],[152.75076887421156,-30.196603548655386],[152.69299281222467,-30.18900274286314],[152.70745666846662,-30.204232684412705],[152.69399396919803,-30.2111097831295],[152.69764797709132,-30.223756793587373],[152.64675212875795,-30.258205948805564],[152.61594675252974,-30.25806110575766],[152.56123366239456,-30.233626450170984],[152.55500938696525,-30.280914559914084],[152.4933618671805,-30.33685287426448],[152.48048306932807,-30.332479952965027],[152.48463756119614,-30.39078193381266],[152.4380614856763,-30.400233149308136],[152.4280839144655,-30.418884198469392],[152.41721129346047,-30.43681121753774],[152.39205579575932,-30.442904355117857],[152.3932422212402,-30.476402235485907],[152.408310067774,-30.488720057055183],[152.4981068827232,-30.51910129610249],[152.63030187372857,-30.53956497929698],[152.73196987344605,-30.52260852924558],[152.8162566408101,-30.53963756775773],[152.81784549195044,-30.529591607840526],[152.84139313867064,-30.532467360209584],[152.83978632753355,-30.542495300124717],[152.85742907485738,-30.546284181913315],[152.86513882536664,-30.535340152600575],[152.88766267976666,-30.55655299500957],[153.01686664271432,-30.56516556801671],[153.03366263046058,-30.491988469153423],[153.0602049230044,-30.448740821496244],[152.95762936356402,-30.38874559074662],[152.96547127796973,-30.348504151228877],[152.8197855321212,-30.30035693630694],[152.82013615665167,-30.265788026080866],[152.83311201406715,-30.273389877431594],[152.85538759399975,-30.253430469502607],[152.80345891874785,-30.18955424384345]]]},"properties":{"lga_code":"10600","lga_name":"Bellingen","state":"New South Wales","area_sqkm":1600.4338}},
{"type":"Feature","geometry":{"type":"Polygon","coordinates":[[[145.48452386613732,-35.51198167887417],[145.4590551496657,-35.61183588773856],[145.46859839802286,-35.613003148417164],[145.4569159809648,-35.697530518149776],[145.4436228732573,-35.695934147205406],[145.4400121817918,-35.71528572707851],[145.4243290852157,-35.70659986592099],[145.3929820780516,-35.72726585385918],[145.34300909768484,-35.711688850263194],[145.3320453038903,-35.76454745984343],[145.34283816202313,-35.76585125060526],[145.34687411844877,-35.79368546106882],[145.34341493354893,-35.845508331165355],[145.36372959002745,-35.84792772260044],[145.36017490913488,-35.86181076244246],[145.41048978242972,-35.84868480587877],[145.4198798930914,-35.82816069640329],[145.4417993887783,-35.83564556799049],[145.45066425886304,-35.82140495852026],[145.46253216637982,-35.82685621939001],[145.4721342767087,-35.809217399950164],[145.5216598077611,-35.818642263500884],[145.5355918372996,-35.80197236437533],[145.53876964467946,-35.82180003472927],[145.56284137170874,-35.81343590637584],[145.5580027009093,-35.828217396130256],[145.59323663302763,-35.84906417876008],[145.58679739276147,-35.86123167838339],[145.60114103898457,-35.874994969489485],[145.62635313624483,-35.86274516119788],[145.6203272049498,-35.88387164090811],[145.6790590819655,-35.916815955297736],[145.67387059182533,-35.925879864987486],[145.69818665844073,-35.92096440668745],[145.6973333569053,-35.936488626727886],[145.726306601613,-35.942298688832615],[145.7167713222547,-35.95058146820603],[145.74611519605264,-35.96422529039062],[145.7782172413127,-35.96023045266125],[145.77688914020504,-35.97242831264568],[145.8100410628071,-35.99135417514508],[145.8275537317149,-35.97542484629821],[145.84722399782797,-35.98201751775451],[145.85971770675897,-35.97334405859645],[145.85300601922089,-35.96065653803095],[145.8704323669783,-35.95548351925101],[145.90801347114,-35.953551951946544],[145.90293931028825,-35.96884264168034],[145.92582719707187,-35.96455033330403],[145.9281671456682,-35.973947603534334],[145.94607957416514,-35.96132083474624],[145.98791377083054,-35.747318016373455],[145.9905888935382,-35.718561946378564],[145.9737999577398,-35.70454795507051],[145.97814914954716,-35.68157039523446],[145.99158720722258,-35.68327419621913],[145.98454417006835,-35.66742430560466],[145.99801967984294,-35.649798776465296],[145.98463345215086,-35.64814530548438],[145.98692989310535,-35.63600845557091],[146.0044975200821,-35.638139116858284],[146.0072587411659,-35.62414806696649],[145.994133853459,-35.622228726002255],[146.0076503551513,-35.58692896674985],[145.79191864273858,-35.555678380992255],[145.79366356366856,-35.54443090104324],[145.7378680632349,-35.53769682700731],[145.7214630345896,-35.549362495912874],[145.71579538650803,-35.53981742544568],[145.48452386613732,-35.51198167887417]]]},"properties":{"lga_code":"10650","lga_name":"Berrigan","state":"New South Wales","area_sqkm":2065.8878}},
{"type":"Feature","geometry":{"type":"Polygon","coordinates":[[[150.8129120427078,-33.82234608982523],[150.8577369564864,-33.82086395393463],[150.88896437028157,-33.83398933690144],[150.908905778568,-33.8253691486788],[150.91597379020163,-33.805387949190425],[150.9330644775683,-33.806822290777305],[150.95064349794,-33.78505328224762],[150.96532247659152,-33.779411283564244],[150.958894468985,-33.76827228289204],[150.9117694879244,-33.67579028789232],[150.87404451581028,-33.65665828428202],[150.85874550934747,-33.64630427280125],[150.81863037307693,-33.6613302892197],[150.81239963182654,-33.677601188761976],[150.80054184391085,-33.674583497652335],[150.7661094647594,-33.70549838471222],[150.7596354124601,-33.73006283429163],[150.79302564461847,-33.75347158751692],[150.8129120427078,-33.82234608982523]]]},"properties":{"lga_code":"10750","lga_name":"Blacktown","state":"New South Wales","area_sqkm":238.8471}},
{"type":"Feature","geometry":{"type":"Polygon","coordinates":[[[146.09514737265877,-33.603118109749886],[146.0703060806573,-33.753520758975284],[146.4371911322249,-33.79448591620756],[146.41743911277004,-33.91062191553882],[146.49281511063896,-33.91964393120006],[146.46461008587647,-34.096379920310234],[146.45821210290651,-34.13291692008393],[146.6354105544617,-34.151173623439846],[146.62387779819824,-34.224721913076145],[146.72904924113195,-34.23675535106718],[146.71875083596638,-34.298097730708406],[146.82303441891037,-34.310837648677776],[146.8250982799034,-34.29900256875364],[146.91140827577811,-34.30964490538436],[146.93446200411196,-34.29345470703094],[146.97955230672503,-34.29911132051191],[146.97964530547338,-34.310262370595],[147.05018801639702,-34.296786675905395],[147.1076613355046,-34.317211220460926],[147.12935949680917,-34.276472871853876],[147.25496433634967,-34.291326081664494],[147.26484452116713,-34.23539722204893],[147.29703237421984,-34.25441442467856],[147.3015960764381,-34.228688274857454],[147.2846013198808,-34.22063039348175],[147.306195848506,-34.20424614504793],[147.29618700017824,-34.2026432442589],[147.30088269245985,-34.17615811444265],[147.39077720781924,-34.18730842152351],[147.3888133269278,-34.1977754814418],[147.41931790117903,-34.2084223038988],[147.47044596353325,-34.20869695790513],[147.469307608778,-34.164001797509705],[147.49622957130265,-34.10653738922831],[147.5840071369956,-34.11789293621471],[147.58039735524054,-34.13797614606782],[147.63003292716812,-34.14417001002999],[147.63288631841417,-34.129573790155455],[147.66601670343817,-34.13013067278147],[147.71366996275873,-34.16160663677698],[147.7591683782289,-34.14232078026174],[147.78405003290152,-34.069728021744474],[147.75715745811382,-34.058957019528776],[147.73670775807332,-33.998459147485875],[147.7229499202208,-33.99741807638537],[147.73243806041793,-33.98348597704335],[147.72209838209594,-33.982136006212485],[147.72723506449893,-33.95452884643035],[147.70980638731444,-33.952338885031054],[147.7127986586838,-33.93650618515947],[147.5408010869412,-33.91049574138403],[147.55679294910024,-33.87066100236843],[147.5415759535242,-33.85130099103681],[147.5543139838517,-33.83187799190555],[147.53611199017251,-33.799539990249485],[147.52315295179187,-33.80200999924732],[147.51150497436046,-33.705553997664964],[147.4818999788869,-33.7037219953279],[147.41709115754523,-33.53185763906112],[147.4034892500111,-33.5274290279673],[147.35835711678965,-33.52532970443075],[147.3203662375895,-33.56778772176694],[147.24588350796088,-33.57190038601248],[147.24278392621042,-33.59180344591018],[146.98643683659995,-33.56382060598858],[146.9884814175972,-33.5519466060627],[146.82981153221235,-33.53796668388784],[146.82041566463977,-33.528159903107976],[146.80888585778513,-33.60713801278068],[146.44562915547598,-33.56386195524678],[146.4408137507323,-33.520844974592514],[146.09514737265877,-33.603118109749886]]]},"properties":{"lga_code":"10800","lga_name":"Bland","state":"New South Wales","area_sqkm":8557.6536}},
{"type":"Feature","geometry":{"type":"Polygon","coordinates":[[[148.8389508179426,-33.56854809457227],[148.84939182509405,-33.57978710552731],[148.8725877925322,-33.57332411743099],[148.87337278991936,-33.594156117642505],[148.898417808157,-33.578823109642094],[148.92223179236154,-33.59852911178526],[148.91167580365442,-33.683474121488835],[148.95780679640973,-33.68830711541214],[148.9626297933563,-33.70781111595528],[148.99366547732419,-33.72059590866666],[148.97602276633418,-33.74984810737933],[148.992933763383,-33.75400511883757],[148.9745627657472,-33.756441127301905],[148.98892507068146,-33.78108293868721],[149.0098865072904,-33.78399995048042],[149.00771015628368,-33.79489247037209],[149.02901575340636,-33.79315711216366],[149.02617090257948,-33.80335587199369],[149.06459433591147,-33.8123728653134],[149.0671810182517,-33.790069835377615],[149.09160273427472,-33.79367480747613],[149.0914528977407,-33.765402177266495],[149.1387546315714,-33.75987762125067],[149.14600919392151,-33.73202350167423],[149.16913475190256,-33.72120313356934],[149.2577487367295,-33.740643141275825],[149.28995404218625,-33.7397779940291],[149.3163823703171,-33.72395873618615],[149.31737856788794,-33.74254182640137],[149.33482023507813,-33.74491768791599],[149.35603655621517,-33.71083245950192],[149.4003847032368,-33.683174143126884],[149.4220634573265,-33.54352739401873],[149.3535903792088,-33.52654586800215],[149.36345060681987,-33.45292275833375],[149.34724690808653,-33.46146085700023],[149.23854175606326,-33.44126013753741],[149.23444677829477,-33.42771913709216],[149.2171497613489,-33.42288813557976],[149.20677876083784,-33.439271124808855],[149.1708697767692,-33.43262613169818],[149.06617377315888,-33.42067112271035],[149.05083680013797,-33.463869121712605],[148.91918983092185,-33.447626630473216],[148.87407480723851,-33.53229511726919],[148.85471180854572,-33.54459611572815],[148.8580027965043,-33.557687106096076],[148.8389508179426,-33.56854809457227]]]},"properties":{"lga_code":"10850","lga_name":"Blayney","state":"New South Wales","area_sqkm":1524.647}},
{"type":"Feature","geometry":{"type":"Polygon","coordinates":[[[150.65898081265212,-33.68548137477813],[150.65756151596165,-33.66166443448132],[150.60613743315102,-33.66271711980415],[150.61595900807214,-33.614139470356484],[150.58165416182905,-33.62278340729678],[150.56310628610893,-33.610141725522624],[150.56493669033875,-33.57551755544523],[150.54755897326316,-33.571999813842694],[150.54476080553815,-33.55749984348668],[150.51491870661312,-33.581951290952446],[150.46859462296084,-33.58379602677137],[150.43020477433132,-33.537915752979245],[150.48549884306075,-33.486912477618525],[150.48360434863835,-33.44570344715643],[150.5493732992767,-33.36869631257329],[150.48234357692206,-33.38271048659759],[150.47916822132086,-33.429737576642324],[150.44667138922097,-33.481783994071115],[150.41694010281802,-33.486568551420206],[150.40852798571842,-33.473269610567534],[150.39907043497738,-33.489473849828826],[150.38652041805327,-33.47936894862634],[150.36944590897056,-33.49108323717078],[150.3548640117215,-33.48575236582056],[150.33100703039548,-33.52251290393372],[150.31191723341075,-33.52013704220163],[150.3146739050338,-33.50440095233845],[150.25681940453677,-33.494292407076834],[150.2506795472687,-33.558032726975334],[150.22612378044784,-33.56050297479428],[150.21564776353878,-33.547964003768925],[150.21218592268258,-33.558537093533694],[150.27076417610553,-33.62291574923129],[150.26192365496692,-33.64165091857039],[150.24050976841937,-33.63856309663042],[150.2481511840588,-33.66409515749395],[150.21483668744708,-33.674827444587486],[150.20762632416938,-33.70850155417883],[150.18108684849474,-33.70439871177859],[150.17917384650224,-33.722124841731976],[150.19565250532713,-33.71285467313905],[150.21242049185483,-33.72121549469663],[150.18006820333824,-33.745855781978086],[150.1956804884388,-33.76662436351819],[150.16873545865957,-33.79511834131114],[150.18113640592085,-33.80258226247053],[150.1692879944926,-33.827027161583615],[150.18539095080754,-33.83769095309604],[150.16605869008438,-33.86504089156104],[150.1852217353524,-33.88038660337926],[150.23517463764014,-33.88435084787399],[150.30156583308778,-33.845465903554626],[150.34060239604366,-33.85652141713999],[150.33397227813833,-33.84769150648199],[150.3591524558104,-33.837682348677376],[150.36480484964446,-33.80172959893466],[150.41791994103392,-33.80935025377602],[150.4053671059101,-33.86281980301755],[150.46421955253666,-33.90057650859703],[150.50164008179303,-33.864909071734594],[150.5442702016873,-33.8953997158131],[150.61085145690566,-33.85873489160796],[150.58804765198536,-33.84492037943671],[150.64304052261522,-33.77976462398654],[150.65898081265212,-33.68548137477813]]]},"properties":{"lga_code":"10900","lga_name":"Blue Mountains","state":"New South Wales","area_sqkm":1431.1442}},
{"type":"Feature","geometry":{"type":"Polygon","coordinates":[[[146.34550950687077,-30.853079938645898],[146.4160460681666,-30.948290524546017],[146.42717582721573,-30.943165435332748],[146.4378278040875,-30.96050637624744],[146.28510889710748,-31.031762375495592],[146.36357131773707,-31.12235071192778],[146.31470943125112,-31.152040108541254],[146.36593526674451,-31.229319772874273],[146.4665513783362,-31.17992490996485],[146.54826186516263,-31.302152636925015],[146.31964637854546,-31.57258089192875],[146.52803699885962,-32.3683896930283],[146.58581711070073,-32.36953819734903],[146.67594243197667,-32.33298532384439],[146.72079120921953,-32.39546012765963],[146.8069955017579,-32.44746550453434],[146.86996215739947,-32.40562775901063],[146.76659181387538,-32.29018037036768],[146.8978512746929,-32.20476272970524],[146.99652180922078,-32.31688015802216],[147.00120852168152,-32.28753800817222],[147.04490806505754,-32.29301349155558],[147.0478858466174,-32.27444741165197],[147.06869460348435,-32.27687421326476],[147.14326734841435,-32.22782586864863],[147.07091450655724,-32.150839962539],[147.1942392484188,-32.06822086144285],[147.19842955336142,-32.1102928220665],[147.2666233687712,-32.065802267025845],[147.29290231272677,-31.99521220856003],[147.32867979788963,-31.99482003133686],[147.33775456848875,-31.97767404192012],[147.3882495445228,-31.950534745659656],[147.3693886491707,-31.93111191405009],[147.4832935307945,-31.86514645247992],[147.44015474136742,-31.82110588878618],[147.4202581912159,-31.847629927421178],[147.34108386592126,-31.81036241098062],[147.41009942094902,-31.676023095394854],[147.43358111740602,-31.585984976581024],[147.48199763773175,-31.522249579910927],[147.459466663592,-31.49552471795329],[147.50567657057093,-31.466083381362058],[147.48672180350488,-31.462260499847915],[147.4983965428261,-31.454045420703956],[147.52106516089566,-31.443855402409287],[147.52723219926725,-31.451410362948245],[147.46015889825236,-31.356941607005478],[147.51732720293177,-31.335699981333036],[147.41903933567258,-31.244012122972133],[147.41993533709535,-31.229444092936458],[147.38537393470844,-31.20055292002985],[147.37400656032142,-31.161528208860588],[147.36030749274124,-31.155681077751144],[147.29938333691027,-31.19239978328161],[147.28994527956343,-31.178984832451942],[147.3024720087706,-31.17080476336465],[147.19738754230067,-31.078058464556644],[147.2674901377949,-31.03307105965104],[147.15762647574743,-30.9024888002133],[147.1580536842345,-30.81994882964435],[147.11812403882857,-30.82574211661436],[147.08040862060992,-30.856074473939547],[147.05376633434386,-30.85352016187867],[147.06850853599673,-30.81881092275531],[147.0506782509829,-30.79286759119986],[147.05578497191914,-30.77730057147744],[147.02503737751329,-30.76169377901003],[147.00586250216324,-30.74059693739032],[147.01139722366543,-30.71891789765493],[146.9990093755616,-30.716074946687765],[146.90284539583493,-30.737597929519534],[146.9527023737702,-30.7923689437123],[146.89072837059166,-30.804525929087205],[146.87785939375217,-30.789936928004035],[146.7201629813604,-30.818811846298875],[146.71723615989902,-30.837056856211454],[146.6755357863527,-30.827015133004945],[146.62558343191898,-30.836478909329593],[146.64184362696062,-30.864653280752126],[146.65440338554953,-30.86236790167683],[146.66204951161012,-30.89153310246218],[146.60777941766227,-30.90196091847343],[146.43163247150258,-30.693007893845117],[146.31951145403025,-30.71374988571864],[146.4056994340545,-30.802131882719802],[146.36025897775062,-30.82471782952759],[146.34550950687077,-30.853079938645898]]]},"properties":{"lga_code":"10950","lga_name":"Bogan","state":"New South Wales","area_sqkm":14599.8996}},
{"type":"Feature","geometry":{"type":"Polygon","coordinates":[[[144.39293384433114,-28.999079739047673],[144.36944985469364,-29.028686727727287],[144.35731485131416,-29.08608373735657],[144.38456084587668,-29.11070273932293],[144.44147284943054,-29.104290743013458],[144.48080483909882,-29.168580736078958],[144.46135682726964,-29.217946755160863],[144.4688528351598,-29.23177673575675],[144.40564582632135,-29.309584742171403],[144.42427884886183,-29.369730743837774],[144.41262380511802,-29.43033773351703],[144.37401783525507,-29.484959741384696],[144.32524182845415,-29.518864748441512],[144.28236581933936,-29.571441746028892],[144.24293283263603,-29.59084572360455],[144.22931782162414,-29.62284972295394],[144.20438084364275,-29.636008741431862],[144.1656808438305,-29.691236729328775],[144.1375371876895,-29.687605737483466],[144.14705682572153,-29.69665372816434],[144.13136182454014,-29.733989727423115],[144.13955983005548,-29.774642718248675],[144.11081185014385,-29.816571726699145],[144.13694383469903,-29.841635738567586],[144.1445128300718,-29.884742729370068],[144.14024083612435,-29.937514719477747],[144.12868182740561,-29.939782728747886],[144.13275982296003,-29.985879739345908],[144.09546080293123,-30.042279717349796],[144.065449815655,-30.055491715514357],[144.23439646190857,-30.079837506611405],[144.2098353113163,-30.239756186174706],[144.34522777261412,-30.25384773510099],[144.18756676378243,-30.360703835604355],[144.19767569149974,-30.371954686340917],[144.6613756746475,-30.894926360626144],[144.68941865126308,-30.89127078247464],[144.69941765204027,-30.86792677297632],[144.81429370549958,-30.993057881592485],[144.912148628716,-30.925028777722176],[144.92246363627925,-30.936755778506267],[144.97994562258313,-30.89400780210729],[145.0095796057214,-30.926097794358075],[145.06507263176678,-30.889304787886118],[145.08737561652802,-30.914177799592867],[145.12594553354927,-30.891236082074833],[145.06326757034415,-30.798605287109527],[145.22856261481414,-30.731609797995876],[145.24549057952208,-30.764740809405808],[145.38418177767116,-30.69685524855114],[145.56459826728417,-30.979913383248952],[145.6076005236005,-30.958901826133577],[145.5758611523657,-30.91073715354457],[145.66326608529266,-30.864120539390683],[145.66076554879018,-30.830851838972926],[145.73439111250445,-30.795498883948543],[145.77913806022957,-30.86238469762275],[145.9209303682092,-30.794087867291967],[145.88815450750744,-30.742104864558545],[145.96886971986416,-30.71213353015231],[145.99229475335227,-30.747841492102978],[146.0703635068907,-30.709486877478138],[146.0572185105568,-30.689375856378366],[146.12500250498212,-30.656026871061158],[146.2322792942276,-30.82733054013917],[146.3020576187024,-30.79084110499508],[146.34550950687077,-30.853079938645898],[146.36025897775062,-30.82471782952759],[146.4056994340545,-30.802131882719802],[146.31951145403025,-30.71374988571864],[146.43163247150258,-30.693007893845117],[146.4614964381798,-30.68740090601765],[146.43810946961375,-30.602664883666417],[146.42381527120122,-30.605319412627328],[146.3777805158445,-30.415595577838694],[146.40458008209646,-30.418703469841304],[146.41688255666605,-30.35622555029381],[146.354692405288,-30.349552795652073],[146.35710531643673,-30.33467881572106],[146.3714500744626,-30.336082746789454],[146.374164690313,-30.272854796526417],[146.39730309929516,-30.25311067809033],[146.38885222088552,-30.24788170742763],[146.42704151253594,-30.181434889763413],[146.4103025052142,-30.17582089848384],[146.41864950548575,-30.162220899001266],[146.36604152446125,-30.138762894942733],[146.44361953758494,-30.006306889702376],[146.4570365357674,-30.007580900705978],[146.4713845005473,-29.940244891273434],[146.4588545320843,-29.940646900347208],[146.46298852321485,-29.923758900529094],[146.45210217431642,-29.926493289742307],[146.4525625232908,-29.83392788909283],[146.51616552131813,-29.772640893360872],[146.57515853579162,-29.75388388761579],[146.65771751288136,-29.678807903231984],[146.6282595419515,-29.623637900616945],[146.58248446516936,-29.648775027383284],[146.46382415091185,-29.535378347715536],[146.5231595785514,-29.381175890974344],[146.42053101112,-29.381533283365997],[146.4200755751707,-29.236148892248746],[146.35075259364802,-29.236010877131633],[146.34971900769483,-29.090400535968165],[146.37505361462175,-29.09038947783524],[146.37539382330306,-28.999061737176948],[144.4803628736417,-28.999081744797877],[144.39293384433114,-28.999079739047673]]]},"properties":{"lga_code":"11150","lga_name":"Bourke","state":"New South Wales","area_sqkm":41598.3722}},
{"type":"Feature","geometry":{"type":"Polygon","coordinates":[[[146.37539382330306,-28.999061737176948],[146.37505361462175,-29.09038947783524],[146.34971900769483,-29.090400535968165],[146.35075259364802,-29.236010877131633],[146.4200755751707,-29.236148892248746],[146.42053101112,-29.381533283365997],[146.5231595785514,-29.381175890974344],[146.46382415091185,-29.535378347715536],[146.58248446516936,-29.648775027383284],[146.6282595419515,-29.623637900616945],[146.65771751288136,-29.678807903231984],[146.57515853579162,-29.75388388761579],[146.51616552131813,-29.772640893360872],[146.4525625232908,-29.83392788909283],[146.45210217431642,-29.926493289742307],[146.46298852321485,-29.923758900529094],[146.4588545320843,-29.940646900347208],[146.4713845005473,-29.940244891273434],[146.4570365357674,-30.007580900705978],[146.44361953758494,-30.006306889702376],[146.36604152446125,-30.138762894942733],[146.41864950548575,-30.162220899001266],[146.4103025052142,-30.17582089848384],[146.42704151253594,-30.181434889763413],[146.38885222088552,-30.24788170742763],[146.39730309929516,-30.25311067809033],[146.374164690313,-30.272854796526417],[146.3714500744626,-30.336082746789454],[146.35710531643673,-30.33467881572106],[146.354692405288,-30.349552795652073],[146.41688255666605,-30.35622555029381],[146.40458008209646,-30.418703469841304],[146.3777805158445,-30.415595577838694],[146.42381527120122,-30.605319412627328],[146.43810946961375,-30.602664883666417],[146.4614964381798,-30.68740090601765],[146.43163247150258,-30.693007893845117],[146.60777941766227,-30.90196091847343],[146.66204951161012,-30.89153310246218],[146.65440338554953,-30.86236790167683],[146.64184362696062,-30.864653280752126],[146.62558343191898,-30.836478909329593],[146.6755357863527,-30.827015133004945],[146.71723615989902,-30.837056856211454],[146.7201629813604,-30.818811846298875],[146.87785939375217,-30.789936928004035],[146.89072837059166,-30.804525929087205],[146.9527023737702,-30.7923689437123],[146.90284539583493,-30.737597929519534],[146.9990093755616,-30.716074946687765],[147.01139722366543,-30.71891789765493],[147.00586250216324,-30.74059693739032],[147.02503737751329,-30.76169377901003],[147.05578497191914,-30.77730057147744],[147.0506782509829,-30.79286759119986],[147.06850853599673,-30.81881092275531],[147.05376633434386,-30.85352016187867],[147.08040862060992,-30.856074473939547],[147.11812403882857,-30.82574211661436],[147.1580536842345,-30.81994882964435],[147.24065543257416,-30.828847246085456],[147.25575563319796,-30.80396017707236],[147.24635422005608,-30.749646335947872],[147.20351852885412,-30.7182550524075],[147.22297042885228,-30.6939536937323],[147.20690437246142,-30.67913196238277],[147.22087884196765,-30.666449803369417],[147.20522245516776,-30.65504264207661],[147.20716608902893,-30.615222241935104],[147.11907638180298,-30.60139624504783],[147.0996031612622,-30.533612433055346],[147.18843889923482,-30.539590659935477],[147.1778134940358,-30.506185078871074],[147.18778872525874,-30.481852409461666],[147.16216610012467,-30.466440447373586],[147.18099158856006,-30.458201938763835],[147.16736954091735,-30.452227477670068],[147.17568913078543,-30.44314134824446],[147.16506194433626,-30.421784077268647],[147.17756078467943,-30.402869028092802],[147.18624040720502,-30.367449628501564],[147.17698944904717,-30.360987547740788],[147.1990160682797,-30.341097619293258],[147.19687009122913,-30.314998528935533],[147.21469946074905,-30.297567140183542],[147.20462703314078,-30.28672512932596],[147.22317856309226,-30.264215210592795],[147.21239799522547,-30.256752679705063],[147.24194606395216,-30.232618921810634],[147.2312227660349,-30.225560570929453],[147.2534966695873,-30.163399932193396],[147.2368297530268,-30.150377650808053],[147.2432867137784,-30.135071081194297],[147.26949006185205,-30.121599513122764],[147.27879314943996,-30.13367984393271],[147.29856110713445,-30.13184142545167],[147.3069167177565,-30.115518845979274],[147.33346203364292,-30.122983258095815],[147.33254544222524,-30.13789194813479],[147.34163008206414,-30.12831936877014],[147.3762815262055,-30.142767981573247],[147.39622479584904,-30.12184226297258],[147.41748385275517,-30.125860034660647],[147.41873595362753,-30.1158858746846],[147.38913675832347,-30.10650768230667],[147.4111248491395,-29.9747018830451],[147.47572648034264,-29.981569418144613],[147.4939127913236,-29.85316252861552],[147.4138039932475,-29.83418911221108],[147.42301999323823,-29.82310903284795],[147.4004170099175,-29.785381300804087],[147.38079055264433,-29.782559439253674],[147.3926302427919,-29.76675733005857],[147.42731439886217,-29.763103152736914],[147.40419775427864,-29.738222300747996],[147.41070778475637,-29.725677691162357],[147.37945889954796,-29.71667854865975],[147.34661324702532,-29.683260815855157],[147.36981702546038,-29.67047163756492],[147.4089900666389,-29.611564470177967],[147.40810557060593,-29.57377851982705],[147.43581297178198,-29.528889401654258],[147.464093469285,-29.51934427379327],[147.49063950864766,-29.493741065679593],[147.49149237037653,-29.47582217561239],[147.55088805686023,-29.439189829997538],[147.57729800016986,-29.375474791596535],[147.633437836101,-29.348508525817177],[147.67680093123863,-29.34448921921203],[147.72279845200936,-29.282804042390246],[147.73599104109783,-29.276132963386083],[147.77182688538412,-29.289383756330395],[147.77196762727482,-29.270928806202907],[147.814978284776,-29.24473854942718],[147.84029311601304,-29.203241441132032],[147.82887605956194,-29.182272610064157],[147.85142828030473,-29.148824461610285],[147.87005681850502,-29.14453731306476],[147.88642531986693,-29.112384274129937],[147.91975266558097,-29.11507303681579],[147.94549673452303,-28.999134898002726],[146.94501658458623,-28.999119419849894],[146.37539382330306,-28.999061737176948]]]},"properties":{"lga_code":"11200","lga_name":"Brewarrina","state":"New South Wales","area_sqkm":19162.0296}},
{"type":"Feature","geometry":{"type":"Polygon","coordinates":[[[141.41403246272858,-31.938745992819644],[141.41301100043188,-31.971991582993308],[141.3928290227014,-31.979792591970817],[141.4120939383163,-32.00255101315399],[141.46302016114106,-32.00251440587633],[141.45977399093246,-32.01154458576442],[141.4784251977424,-32.01913228681605],[141.4830408783221,-32.00248117694943],[141.54255900994278,-32.00239059014946],[141.5459309960503,-31.91364458972151],[141.56599201368286,-31.90760260076226],[141.55629199539743,-31.902835590205928],[141.56348399571382,-31.884964590471107],[141.41268101675584,-31.886417572388098],[141.41403246272858,-31.938745992819644]]]},"properties":{"lga_code":"11250","lga_name":"Broken Hill","state":"New South Wales","area_sqkm":170.1153}},
{"type":"Feature","geometry":{"type":"Polygon","coordinates":[[[151.09450788582072,-33.8718726161858],[151.08897875287894,-33.89982010586786],[151.11238854025612,-33.89434811800573],[151.1194356623732,-33.87097070849741],[151.09450788582072,-33.8718726161858]]]},"properties":{"lga_code":"11300","lga_name":"Burwood","state":"New South Wales","area_sqkm":7.1282}},
{"type":"Feature","geometry":{"type":"Polygon","coordinates":[[[153.5528778567509,-28.477217506401825],[153.50868085381492,-28.46101951175044],[153.4660098361067,-28.47996349753652],[153.41983486293796,-28.46722349272546],[153.4067216230608,-28.477524161469173],[153.37349399751926,-28.471859458041283],[153.36903332390327,-28.50342924783334],[153.3418828751246,-28.51742047518109],[153.32861786355016,-28.54093447401615],[153.37902584248607,-28.582304499464342],[153.373093209017,-28.613963419106753],[153.41687086253876,-28.625780503657708],[153.41163785113142,-28.641031493242874],[153.4303478264061,-28.660987495305626],[153.41604285665784,-28.671384493927768],[153.42409785286566,-28.693368494919827],[153.40775282566065,-28.686137493197432],[153.4006538248312,-28.698588492570778],[153.40672811831394,-28.743049113534877],[153.427793836514,-28.738585495647843],[153.44964182187866,-28.75503448800466],[153.46290383898636,-28.76560250944073],[153.47809480932787,-28.74992550087091],[153.48845882761452,-28.75402650196199],[153.4851850015291,-28.727094771418283],[153.51685747813235,-28.725687554646626],[153.54253482805035,-28.70428450710938],[153.57498766336715,-28.712002890495718],[153.58129255985315,-28.733225981307285],[153.6051173455157,-28.745665953849127],[153.63860179656456,-28.633471506417482],[153.60764979942527,-28.63818251327384],[153.57081583926583,-28.59494350915767],[153.5528778567509,-28.477217506401825]]]},"properties":{"lga_code":"11350","lga_name":"Byron","state":"New South Wales","area_sqkm":565.8027}},
{"type":"Feature","geometry":{"type":"Polygon","coordinates":[[[148.34714893211196,-32.67574962750432],[148.3295193916755,-32.70101180624002],[148.3275642205106,-32.80081012678699],[148.37834195974665,-32.83260207117286],[148.38306395701426,-32.85058507168754],[148.3721847945918,-32.971569761649555],[148.38963693183752,-32.974128073099756],[148.3993581621991,-32.959151583792355],[148.43017076661394,-32.969928606401155],[148.50724910605103,-33.05341686334259],[148.4865725508448,-33.12322343212774],[148.5043382970501,-33.13418642367109],[148.49856384170343,-33.18702260356599],[148.46668569369598,-33.20875777108941],[148.43033228982847,-33.200472798037765],[148.4301969080275,-33.21610807813646],[148.42819991562732,-33.239156058134],[148.3971544364607,-33.26998018579835],[148.4156618971503,-33.32721006772042],[148.38427689861513,-33.35312606532361],[148.4147458922537,-33.3702840579468],[148.41822938003767,-33.38498693833612],[148.40308911134693,-33.39234332714312],[148.406380379341,-33.40547973750547],[148.34594069620906,-33.42090035265373],[148.36522689176047,-33.43531607433549],[148.3616129106573,-33.44921804413627],[148.31856189685487,-33.44910206060897],[148.2901899065941,-33.48638605854933],[148.30979704216568,-33.50017803024855],[148.3512740269049,-33.494100063602154],[148.35925993361684,-33.5124090343846],[148.3927777380532,-33.51871407717912],[148.39125542496512,-33.546959297251156],[148.42355269825904,-33.56443586002754],[148.41671912812816,-33.573950859531884],[148.3879225024592,-33.572451917155234],[148.41382077498002,-33.604334219505326],[148.44635211911725,-33.61422806225104],[148.478915955971,-33.60100008484256],[148.48346133763678,-33.581285675080046],[148.51411750322097,-33.58123292761062],[148.51825208369098,-33.572191907889184],[148.54567722605572,-33.60335701037438],[148.6224116762577,-33.592616946660975],[148.62984847780402,-33.570537887124694],[148.65178785588347,-33.5600928088756],[148.65254059375778,-33.57708877905686],[148.68281960828867,-33.58640182164225],[148.71203179559052,-33.57371480398877],[148.738300986048,-33.53813275593289],[148.77437945236525,-33.525531778860774],[148.81040180468867,-33.546473102023626],[148.81594582127872,-33.568322102641005],[148.8389508179426,-33.56854809457227],[148.8580027965043,-33.557687106096076],[148.85471180854572,-33.54459611572815],[148.87407480723851,-33.53229511726919],[148.91918983092185,-33.447626630473216],[149.05083680013797,-33.463869121712605],[149.06617377315888,-33.42067112271035],[149.1708697767692,-33.43262613169818],[149.1516367642204,-33.39376713978642],[149.05799277817428,-33.38875512179247],[149.00945260782677,-33.36603806752144],[149.0422958187212,-33.319698119976756],[149.05051920186247,-33.28384068042156],[149.0323738156665,-33.27361611881215],[149.0432718102565,-33.22248511937546],[149.1660142821783,-33.228284599847406],[149.16102862612246,-33.284297229816964],[149.1884253799698,-33.30302815228481],[149.18105277680482,-33.33783113190067],[149.19204978503151,-33.339565132851085],[149.1933929421466,-33.361798343122],[149.23188065422886,-33.381907276551],[149.23444677829477,-33.42771913709216],[149.23854175606326,-33.44126013753741],[149.34724690808653,-33.46146085700023],[149.36345060681987,-33.45292275833375],[149.34129986075905,-33.44654886638439],[149.34153273245724,-33.43238786630496],[149.29895022910276,-33.42767507261595],[149.31272676654,-33.350591143256175],[149.33720975582497,-33.32792914519913],[149.31084329588862,-33.27599154256944],[149.32152476592842,-33.263226133396344],[149.31341878002462,-33.238973152529596],[149.3442280956871,-33.23880513517442],[149.3494577815836,-33.18425794523914],[149.35045146547657,-33.151073675090245],[149.3171528507124,-33.1466009121983],[149.32296081049358,-33.059144142078644],[149.29694580392854,-33.06095413985932],[149.27401581918187,-33.044130127775105],[149.2804768326134,-33.008197138074266],[149.24945581639284,-33.01292614545174],[149.23297983043244,-32.998570143940995],[149.22309280895698,-33.022342143264225],[149.1906992116329,-33.03789699060828],[149.16804965521965,-33.03452297865292],[149.16197181989563,-33.00268412790969],[149.12799682397326,-33.008434125057825],[149.11845882347976,-33.02372813435481],[149.13358244663732,-33.06306214591941],[149.0571938409674,-33.03308912921903],[149.03176086293337,-33.04656910715924],[149.0138557861017,-33.041123075605114],[149.02028154394557,-32.96774364562988],[148.98499984953358,-32.962361122608186],[148.95220786149835,-32.90026710939994],[148.9586958815805,-32.891918109888195],[148.9031377074041,-32.908392235322765],[148.88624087123512,-32.89599310381343],[148.85374733574292,-32.89633457108546],[148.85825713720078,-32.878625481338695],[148.84203088024995,-32.87201309992967],[148.80846621404393,-32.879670837169556],[148.78105789379248,-32.82932708451804],[148.7254801949273,-32.800528079669945],[148.70315892244983,-32.762801077540736],[148.69120491338649,-32.76905307658899],[148.67156591911314,-32.74341709477182],[148.65070394145698,-32.74824908307073],[148.6477909162472,-32.7105690825611],[148.69135494529357,-32.666729075874805],[148.66700598283745,-32.630920333593046],[148.66365594209572,-32.641302083388176],[148.63741693666117,-32.63333308115008],[148.63107494539133,-32.65185909075494],[148.61443492749922,-32.65360407938581],[148.50119008778324,-32.61410408973251],[148.47526497980752,-32.62777007769128],[148.45925896437888,-32.60734405622724],[148.4049299300583,-32.6235604318736],[148.36111744627132,-32.622449538270544],[148.34714893211196,-32.67574962750432]]]},"properties":{"lga_code":"11400","lga_name":"Cabonne","state":"New South Wales","area_sqkm":6022.3496}},
{"type":"Feature","geometry":{"type":"Polygon","coordinates":[[[150.81511746317756,-33.96785327104623],[150.82256922420382,-33.95198495161972],[150.72572050987398,-33.938870272650014],[150.62961551132577,-33.95707127400415],[150.62860835944744,-33.972493724020126],[150.67077001137014,-33.987678097970274],[150.64993735165208,-34.008404496214624],[150.6720612357153,-34.02923453837815],[150.6489403821083,-34.08203275663714],[150.70936641185696,-34.093396302232954],[150.70661445434556,-34.0775672718711],[150.74213946878754,-34.080714275142704],[150.76642816562492,-34.078050577348826],[150.79654245577646,-34.04401726987298],[150.78766748084956,-34.01536827885882],[150.81511746317756,-33.96785327104623]]]},"properties":{"lga_code":"11450","lga_name":"Camden","state":"New South Wales","area_sqkm":201.5278}},
{"type":"Feature","geometry":{"type":"Polygon","coordinates":[[[150.74213946878754,-34.080714275142704],[150.73699617528538,-34.11282598489565],[150.75671299122263,-34.12192872676444],[150.75206876634206,-34.16385083663089],[150.89936044153094,-34.1896003003432],[150.92258542611677,-34.129999292069925],[150.94079671548062,-34.0400204731232],[150.88666247434534,-34.032101988075375],[150.8892410576271,-34.00460210812087],[150.89291313511893,-34.01949550856323],[150.9069444633682,-34.01744428984217],[150.9132488994626,-33.96475409005528],[150.8868295841369,-33.95817681757426],[150.84446246675384,-33.98444627385873],[150.81511746317756,-33.96785327104623],[150.78766748084956,-34.01536827885882],[150.79654245577646,-34.04401726987298],[150.76642816562492,-34.078050577348826],[150.74213946878754,-34.080714275142704]]]},"properties":{"lga_code":"11500","lga_name":"Campbelltown (NSW)","state":"New South Wales","area_sqkm":311.4117}},
{"type":"Feature","geometry":{"type":"Polygon","coordinates":[[[151.08142947061538,-33.849975314817115],[151.09450788582072,-33.8718726161858],[151.1194356623732,-33.87097070849741],[151.14207748920836,-33.87040781060096],[151.16613543782228,-33.855058302734854],[151.15404858129045,-33.842057321517196],[151.14227839146275,-33.85334530050001],[151.12698846487413,-33.84418229901232],[151.1193139432251,-33.86472895844231],[151.12105170604212,-33.841793068443124],[151.104149329449,-33.83437428681901],[151.0998456487372,-33.84431403648866],[151.0894555630935,-33.82279829537209],[151.0805383921535,-33.8394011346602],[151.08142947061538,-33.849975314817115]]]},"properties":{"lga_code":"11520","lga_name":"Canada Bay","state":"New South Wales","area_sqkm":19.9239}},
{"type":"Feature","geometry":{"type":"Polygon","coordinates":[[[151.05858735931005,-33.88426829293689],[151.03087890277712,-33.888042890393656],[150.9905263017505,-33.86406101648874],[150.96715115163505,-33.8901305645097],[150.9735121480919,-33.90991692523629],[150.97905244473785,-33.92914864588324],[150.96620287466015,-33.94360285479637],[150.9940158269209,-33.97168767756512],[150.99714493505397,-33.98231266792901],[151.01558864243316,-33.982066469635],[151.02260642382402,-33.964083250159376],[151.0248